ORBCOMM FM24            
1 25478U 98053D   24156.95038959  .00001703  00000+0  63140-3 0  9994
2 25478  45.0084 254.6450 0002042 203.3159 156.7596 14.35800191343186
ORBCOMM FM25            
1 25479U 98053E   24156.63873200  .00001800  00000+0  66504-3 0  9991
2 25479  45.0075 254.3637 0004312 180.8049 179.2792 14.35779132343436
ORBCOMM FM26            
1 25480U 98053F   24156.93356141  .00001510  00000+0  57197-3 0  9992
2 25480  45.0068 247.1981 0006798 192.8853 167.1822 14.35206653343419
ORBCOMM FM27            
1 25481U 98053G   24156.97500199  .00001852  00000+0  68295-3 0  9991
2 25481  45.0057 253.0388 0002103 247.7259 112.3365 14.35767812343458
ORBCOMM FM28            
1 25482U 98053H   24157.44073655  .00001213  00000+0  46004-3 0  9992
2 25482  45.0046 189.2186 0005233 233.9244 126.1119 14.36191925344325
ORBCOMM FM30            
1 25980U 99065A   24156.89309269  .00001701  00000+0  63662-3 0  9991
2 25980  45.0325  72.9402 0006567 287.1988  72.8141 14.35338773280205
ORBCOMM FM31            
1 25981U 99065B   24157.41550258  .00001446  00000+0  54850-3 0  9992
2 25981  45.0241  64.1490 0004032 315.5983  44.4541 14.35335369280802
ORBCOMM FM32            
1 25982U 99065C   24157.13653123  .00001666  00000+0  63704-3 0  9999
2 25982  45.0165  79.4542 0006542 312.4582  47.5711 14.34336585280559
