<?xml version="1.0" encoding="UTF-8"?>
<ndm xmlns:xsi="http://www.w3.org/2001/XMLSchema-instance" xsi:noNamespaceSchemaLocation="https://sanaregistry.org/r/ndmxml_unqualified/ndmxml-2.0.0-master-2.0.xsd">
<omm id="CCSDS_OMM_VERS" version="2.0">
<header><CREATION_DATE/><ORIGINATOR/></header><body><segment><metadata><OBJECT_NAME>ORBCOMM FM24</OBJECT_NAME><OBJECT_ID>1998-053D</OBJECT_ID><CENTER_NAME>EARTH</CENTER_NAME><REF_FRAME>TEME</REF_FRAME><TIME_SYSTEM>UTC</TIME_SYSTEM><MEAN_ELEMENT_THEORY>SGP4</MEAN_ELEMENT_THEORY></metadata><data><meanElements><EPOCH>2024-06-04T22:48:33.660576</EPOCH><MEAN_MOTION>14.35800191</MEAN_MOTION><ECCENTRICITY>.0002042</ECCENTRICITY><INCLINATION>45.0084</INCLINATION><RA_OF_ASC_NODE>254.6450</RA_OF_ASC_NODE><ARG_OF_PERICENTER>203.3159</ARG_OF_PERICENTER><MEAN_ANOMALY>156.7596</MEAN_ANOMALY></meanElements><tleParameters><EPHEMERIS_TYPE>0</EPHEMERIS_TYPE><CLASSIFICATION_TYPE>U</CLASSIFICATION_TYPE><NORAD_CAT_ID>25478</NORAD_CAT_ID><ELEMENT_SET_NO>999</ELEMENT_SET_NO><REV_AT_EPOCH>34318</REV_AT_EPOCH><BSTAR>.6314E-3</BSTAR><MEAN_MOTION_DOT>.1703E-4</MEAN_MOTION_DOT><MEAN_MOTION_DDOT>0</MEAN_MOTION_DDOT></tleParameters></data></segment></body></omm>
<omm id="CCSDS_OMM_VERS" version="2.0">
<header><CREATION_DATE/><ORIGINATOR/></header><body><segment><metadata><OBJECT_NAME>ORBCOMM FM25</OBJECT_NAME><OBJECT_ID>1998-053E</OBJECT_ID><CENTER_NAME>EARTH</CENTER_NAME><REF_FRAME>TEME</REF_FRAME><TIME_SYSTEM>UTC</TIME_SYSTEM><MEAN_ELEMENT_THEORY>SGP4</MEAN_ELEMENT_THEORY></metadata><data><meanElements><EPOCH>2024-06-04T15:19:46.444800</EPOCH><MEAN_MOTION>14.35779132</MEAN_MOTION><ECCENTRICITY>.0004312</ECCENTRICITY><INCLINATION>45.0075</INCLINATION><RA_OF_ASC_NODE>254.3637</RA_OF_ASC_NODE><ARG_OF_PERICENTER>180.8049</ARG_OF_PERICENTER><MEAN_ANOMALY>179.2792</MEAN_ANOMALY></meanElements><tleParameters><EPHEMERIS_TYPE>0</EPHEMERIS_TYPE><CLASSIFICATION_TYPE>U</CLASSIFICATION_TYPE><NORAD_CAT_ID>25479</NORAD_CAT_ID><ELEMENT_SET_NO>999</ELEMENT_SET_NO><REV_AT_EPOCH>34343</REV_AT_EPOCH><BSTAR>.66504E-3</BSTAR><MEAN_MOTION_DOT>.18E-4</MEAN_MOTION_DOT><MEAN_MOTION_DDOT>0</MEAN_MOTION_DDOT></tleParameters></data></segment></body></omm>
<omm id="CCSDS_OMM_VERS" version="2.0">
<header><CREATION_DATE/><ORIGINATOR/></header><body><segment><metadata><OBJECT_NAME>ORBCOMM FM26</OBJECT_NAME><OBJECT_ID>1998-053F</OBJECT_ID><CENTER_NAME>EARTH</CENTER_NAME><REF_FRAME>TEME</REF_FRAME><TIME_SYSTEM>UTC</TIME_SYSTEM><MEAN_ELEMENT_THEORY>SGP4</MEAN_ELEMENT_THEORY></metadata><data><meanElements><EPOCH>2024-06-04T22:24:19.705824</EPOCH><MEAN_MOTION>14.35206653</MEAN_MOTION><ECCENTRICITY>.0006798</ECCENTRICITY><INCLINATION>45.0068</INCLINATION><RA_OF_ASC_NODE>247.1981</RA_OF_ASC_NODE><ARG_OF_PERICENTER>192.8853</ARG_OF_PERICENTER><MEAN_ANOMALY>167.1822</MEAN_ANOMALY></meanElements><tleParameters><EPHEMERIS_TYPE>0</EPHEMERIS_TYPE><CLASSIFICATION_TYPE>U</CLASSIFICATION_TYPE><NORAD_CAT_ID>25480</NORAD_CAT_ID><ELEMENT_SET_NO>999</ELEMENT_SET_NO><REV_AT_EPOCH>34341</REV_AT_EPOCH><BSTAR>.57197E-3</BSTAR><MEAN_MOTION_DOT>.151E-4</MEAN_MOTION_DOT><MEAN_MOTION_DDOT>0</MEAN_MOTION_DDOT></tleParameters></data></segment></body></omm>
<omm id="CCSDS_OMM_VERS" version="2.0">
<header><CREATION_DATE/><ORIGINATOR/></header><body><segment><metadata><OBJECT_NAME>ORBCOMM FM27</OBJECT_NAME><OBJECT_ID>1998-053G</OBJECT_ID><CENTER_NAME>EARTH</CENTER_NAME><REF_FRAME>TEME</REF_FRAME><TIME_SYSTEM>UTC</TIME_SYSTEM><MEAN_ELEMENT_THEORY>SGP4</MEAN_ELEMENT_THEORY></metadata><data><meanElements><EPOCH>2024-06-04T23:24:00.171936</EPOCH><MEAN_MOTION>14.35767812</MEAN_MOTION><ECCENTRICITY>.0002103</ECCENTRICITY><INCLINATION>45.0057</INCLINATION><RA_OF_ASC_NODE>253.0388</RA_OF_ASC_NODE><ARG_OF_PERICENTER>247.7259</ARG_OF_PERICENTER><MEAN_ANOMALY>112.3365</MEAN_ANOMALY></meanElements><tleParameters><EPHEMERIS_TYPE>0</EPHEMERIS_TYPE><CLASSIFICATION_TYPE>U</CLASSIFICATION_TYPE><NORAD_CAT_ID>25481</NORAD_CAT_ID><ELEMENT_SET_NO>999</ELEMENT_SET_NO><REV_AT_EPOCH>34345</REV_AT_EPOCH><BSTAR>.68295E-3</BSTAR><MEAN_MOTION_DOT>.1852E-4</MEAN_MOTION_DOT><MEAN_MOTION_DDOT>0</MEAN_MOTION_DDOT></tleParameters></data></segment></body></omm>
<omm id="CCSDS_OMM_VERS" version="2.0">
<header><CREATION_DATE/><ORIGINATOR/></header><body><segment><metadata><OBJECT_NAME>ORBCOMM FM28</OBJECT_NAME><OBJECT_ID>1998-053H</OBJECT_ID><CENTER_NAME>EARTH</CENTER_NAME><REF_FRAME>TEME</REF_FRAME><TIME_SYSTEM>UTC</TIME_SYSTEM><MEAN_ELEMENT_THEORY>SGP4</MEAN_ELEMENT_THEORY></metadata><data><meanElements><EPOCH>2024-06-05T10:34:39.637920</EPOCH><MEAN_MOTION>14.36191925</MEAN_MOTION><ECCENTRICITY>.0005233</ECCENTRICITY><INCLINATION>45.0046</INCLINATION><RA_OF_ASC_NODE>189.2186</RA_OF_ASC_NODE><ARG_OF_PERICENTER>233.9244</ARG_OF_PERICENTER><MEAN_ANOMALY>126.1119</MEAN_ANOMALY></meanElements><tleParameters><EPHEMERIS_TYPE>0</EPHEMERIS_TYPE><CLASSIFICATION_TYPE>U</CLASSIFICATION_TYPE><NORAD_CAT_ID>25482</NORAD_CAT_ID><ELEMENT_SET_NO>999</ELEMENT_SET_NO><REV_AT_EPOCH>34432</REV_AT_EPOCH><BSTAR>.46004E-3</BSTAR><MEAN_MOTION_DOT>.1213E-4</MEAN_MOTION_DOT><MEAN_MOTION_DDOT>0</MEAN_MOTION_DDOT></tleParameters></data></segment></body></omm>
<omm id="CCSDS_OMM_VERS" version="2.0">
<header><CREATION_DATE/><ORIGINATOR/></header><body><segment><metadata><OBJECT_NAME>ORBCOMM FM30</OBJECT_NAME><OBJECT_ID>1999-065A</OBJECT_ID><CENTER_NAME>EARTH</CENTER_NAME><REF_FRAME>TEME</REF_FRAME><TIME_SYSTEM>UTC</TIME_SYSTEM><MEAN_ELEMENT_THEORY>SGP4</MEAN_ELEMENT_THEORY></metadata><data><meanElements><EPOCH>2024-06-04T21:26:03.208416</EPOCH><MEAN_MOTION>14.35338773</MEAN_MOTION><ECCENTRICITY>.0006567</ECCENTRICITY><INCLINATION>45.0325</INCLINATION><RA_OF_ASC_NODE>72.9402</RA_OF_ASC_NODE><ARG_OF_PERICENTER>287.1988</ARG_OF_PERICENTER><MEAN_ANOMALY>72.8141</MEAN_ANOMALY></meanElements><tleParameters><EPHEMERIS_TYPE>0</EPHEMERIS_TYPE><CLASSIFICATION_TYPE>U</CLASSIFICATION_TYPE><NORAD_CAT_ID>25980</NORAD_CAT_ID><ELEMENT_SET_NO>999</ELEMENT_SET_NO><REV_AT_EPOCH>28020</REV_AT_EPOCH><BSTAR>.63662E-3</BSTAR><MEAN_MOTION_DOT>.1701E-4</MEAN_MOTION_DOT><MEAN_MOTION_DDOT>0</MEAN_MOTION_DDOT></tleParameters></data></segment></body></omm>
<omm id="CCSDS_OMM_VERS" version="2.0">
<header><CREATION_DATE/><ORIGINATOR/></header><body><segment><metadata><OBJECT_NAME>ORBCOMM FM31</OBJECT_NAME><OBJECT_ID>1999-065B</OBJECT_ID><CENTER_NAME>EARTH</CENTER_NAME><REF_FRAME>TEME</REF_FRAME><TIME_SYSTEM>UTC</TIME_SYSTEM><MEAN_ELEMENT_THEORY>SGP4</MEAN_ELEMENT_THEORY></metadata><data><meanElements><EPOCH>2024-06-05T09:58:19.422912</EPOCH><MEAN_MOTION>14.35335369</MEAN_MOTION><ECCENTRICITY>.0004032</ECCENTRICITY><INCLINATION>45.0241</INCLINATION><RA_OF_ASC_NODE>64.1490</RA_OF_ASC_NODE><ARG_OF_PERICENTER>315.5983</ARG_OF_PERICENTER><MEAN_ANOMALY>44.4541</MEAN_ANOMALY></meanElements><tleParameters><EPHEMERIS_TYPE>0</EPHEMERIS_TYPE><CLASSIFICATION_TYPE>U</CLASSIFICATION_TYPE><NORAD_CAT_ID>25981</NORAD_CAT_ID><ELEMENT_SET_NO>999</ELEMENT_SET_NO><REV_AT_EPOCH>28080</REV_AT_EPOCH><BSTAR>.5485E-3</BSTAR><MEAN_MOTION_DOT>.1446E-4</MEAN_MOTION_DOT><MEAN_MOTION_DDOT>0</MEAN_MOTION_DDOT></tleParameters></data></segment></body></omm>
<omm id="CCSDS_OMM_VERS" version="2.0">
<header><CREATION_DATE/><ORIGINATOR/></header><body><segment><metadata><OBJECT_NAME>ORBCOMM FM32</OBJECT_NAME><OBJECT_ID>1999-065C</OBJECT_ID><CENTER_NAME>EARTH</CENTER_NAME><REF_FRAME>TEME</REF_FRAME><TIME_SYSTEM>UTC</TIME_SYSTEM><MEAN_ELEMENT_THEORY>SGP4</MEAN_ELEMENT_THEORY></metadata><data><meanElements><EPOCH>2024-06-05T03:16:36.298272</EPOCH><MEAN_MOTION>14.34336585</MEAN_MOTION><ECCENTRICITY>.0006542</ECCENTRICITY><INCLINATION>45.0165</INCLINATION><RA_OF_ASC_NODE>79.4542</RA_OF_ASC_NODE><ARG_OF_PERICENTER>312.4582</ARG_OF_PERICENTER><MEAN_ANOMALY>47.5711</MEAN_ANOMALY></meanElements><tleParameters><EPHEMERIS_TYPE>0</EPHEMERIS_TYPE><CLASSIFICATION_TYPE>U</CLASSIFICATION_TYPE><NORAD_CAT_ID>25982</NORAD_CAT_ID><ELEMENT_SET_NO>999</ELEMENT_SET_NO><REV_AT_EPOCH>28055</REV_AT_EPOCH><BSTAR>.63704E-3</BSTAR><MEAN_MOTION_DOT>.1666E-4</MEAN_MOTION_DOT><MEAN_MOTION_DDOT>0</MEAN_MOTION_DDOT></tleParameters></data></segment></body></omm>

</ndm>
